[{"OBJECT_NAME":"STARLINK-4268","OBJECT_ID":"2022-083BD","EPOCH":"2026-03-09T11:07:28.036416","MEAN_MOTION":15.08833641,"ECCENTRICITY":0.00014905,"INCLINATION":53.2166,"RA_OF_ASC_NODE":130.0462,"ARG_OF_PERICENTER":87.0971,"MEAN_ANOMALY":273.0192,"EPHEMERIS_TYPE":0,"CLASSIFICATION_TYPE":"U","NORAD_CAT_ID":53183,"ELEMENT_SET_NO":999,"REV_AT_EPOCH":20180,"BSTAR":-1.6449205e-5,"MEAN_MOTION_DOT":-5.5e-6,"MEAN_MOTION_DDOT":0},{"OBJECT_NAME":"CZ-6A DEB","OBJECT_ID":"2024-140YZ","EPOCH":"2026-03-09T14:14:13.172928","MEAN_MOTION":14.91044947,"ECCENTRICITY":0.0161166,"INCLINATION":89.0861,"RA_OF_ASC_NODE":285.7767,"ARG_OF_PERICENTER":146.5264,"MEAN_ANOMALY":214.6281,"EPHEMERIS_TYPE":0,"CLASSIFICATION_TYPE":"U","NORAD_CAT_ID":61432,"ELEMENT_SET_NO":999,"REV_AT_EPOCH":8368,"BSTAR":0.0010034,"MEAN_MOTION_DOT":0.0001278,"MEAN_MOTION_DDOT":0}]
